<?xml version="1.0" encoding="UTF-8"?>
<ndm xmlns:xsi="http://www.w3.org/2001/XMLSchema-instance" xsi:noNamespaceSchemaLocation="https://sanaregistry.org/r/ndmxml_unqualified/ndmxml-2.0.0-master-2.0.xsd">
<omm id="CCSDS_OMM_VERS" version="2.0">
<header><CREATION_DATE/><ORIGINATOR/></header><body><segment><metadata><OBJECT_NAME>QIANFAN-57</OBJECT_NAME><OBJECT_ID>2025-016C</OBJECT_ID><CENTER_NAME>EARTH</CENTER_NAME><REF_FRAME>TEME</REF_FRAME><TIME_SYSTEM>UTC</TIME_SYSTEM><MEAN_ELEMENT_THEORY>SGP4</MEAN_ELEMENT_THEORY></metadata><data><meanElements><EPOCH>2025-10-08T19:07:02.160192</EPOCH><MEAN_MOTION>13.50974503</MEAN_MOTION><ECCENTRICITY>.0001688</ECCENTRICITY><INCLINATION>88.9749</INCLINATION><RA_OF_ASC_NODE>109.9057</RA_OF_ASC_NODE><ARG_OF_PERICENTER>60.1382</ARG_OF_PERICENTER><MEAN_ANOMALY>299.9937</MEAN_ANOMALY></meanElements><tleParameters><EPHEMERIS_TYPE>0</EPHEMERIS_TYPE><CLASSIFICATION_TYPE>U</CLASSIFICATION_TYPE><NORAD_CAT_ID>62787</NORAD_CAT_ID><ELEMENT_SET_NO>999</ELEMENT_SET_NO><REV_AT_EPOCH>3843</REV_AT_EPOCH><BSTAR>.51478E-4</BSTAR><MEAN_MOTION_DOT>.45E-6</MEAN_MOTION_DOT><MEAN_MOTION_DDOT>0</MEAN_MOTION_DDOT></tleParameters></data></segment></body></omm>
<omm id="CCSDS_OMM_VERS" version="2.0">
<header><CREATION_DATE/><ORIGINATOR/></header><body><segment><metadata><OBJECT_NAME>QIANFAN-58</OBJECT_NAME><OBJECT_ID>2025-016D</OBJECT_ID><CENTER_NAME>EARTH</CENTER_NAME><REF_FRAME>TEME</REF_FRAME><TIME_SYSTEM>UTC</TIME_SYSTEM><MEAN_ELEMENT_THEORY>SGP4</MEAN_ELEMENT_THEORY></metadata><data><meanElements><EPOCH>2025-10-08T20:12:08.260128</EPOCH><MEAN_MOTION>13.50974078</MEAN_MOTION><ECCENTRICITY>.0014179</ECCENTRICITY><INCLINATION>88.9720</INCLINATION><RA_OF_ASC_NODE>109.7526</RA_OF_ASC_NODE><ARG_OF_PERICENTER>163.9233</ARG_OF_PERICENTER><MEAN_ANOMALY>196.2371</MEAN_ANOMALY></meanElements><tleParameters><EPHEMERIS_TYPE>0</EPHEMERIS_TYPE><CLASSIFICATION_TYPE>U</CLASSIFICATION_TYPE><NORAD_CAT_ID>62788</NORAD_CAT_ID><ELEMENT_SET_NO>999</ELEMENT_SET_NO><REV_AT_EPOCH>3848</REV_AT_EPOCH><BSTAR>.63908E-4</BSTAR><MEAN_MOTION_DOT>.53E-6</MEAN_MOTION_DOT><MEAN_MOTION_DDOT>0</MEAN_MOTION_DDOT></tleParameters></data></segment></body></omm>
<omm id="CCSDS_OMM_VERS" version="2.0">
<header><CREATION_DATE/><ORIGINATOR/></header><body><segment><metadata><OBJECT_NAME>QIANFAN-59</OBJECT_NAME><OBJECT_ID>2025-016E</OBJECT_ID><CENTER_NAME>EARTH</CENTER_NAME><REF_FRAME>TEME</REF_FRAME><TIME_SYSTEM>UTC</TIME_SYSTEM><MEAN_ELEMENT_THEORY>SGP4</MEAN_ELEMENT_THEORY></metadata><data><meanElements><EPOCH>2025-10-08T19:01:00.298848</EPOCH><MEAN_MOTION>13.50973328</MEAN_MOTION><ECCENTRICITY>.0014418</ECCENTRICITY><INCLINATION>88.9744</INCLINATION><RA_OF_ASC_NODE>109.8161</RA_OF_ASC_NODE><ARG_OF_PERICENTER>167.9293</ARG_OF_PERICENTER><MEAN_ANOMALY>192.2206</MEAN_ANOMALY></meanElements><tleParameters><EPHEMERIS_TYPE>0</EPHEMERIS_TYPE><CLASSIFICATION_TYPE>U</CLASSIFICATION_TYPE><NORAD_CAT_ID>62789</NORAD_CAT_ID><ELEMENT_SET_NO>999</ELEMENT_SET_NO><REV_AT_EPOCH>3847</REV_AT_EPOCH><BSTAR>.4999E-4</BSTAR><MEAN_MOTION_DOT>.44E-6</MEAN_MOTION_DOT><MEAN_MOTION_DDOT>0</MEAN_MOTION_DDOT></tleParameters></data></segment></body></omm>
<omm id="CCSDS_OMM_VERS" version="2.0">
<header><CREATION_DATE/><ORIGINATOR/></header><body><segment><metadata><OBJECT_NAME>QIANFAN-60</OBJECT_NAME><OBJECT_ID>2025-016F</OBJECT_ID><CENTER_NAME>EARTH</CENTER_NAME><REF_FRAME>TEME</REF_FRAME><TIME_SYSTEM>UTC</TIME_SYSTEM><MEAN_ELEMENT_THEORY>SGP4</MEAN_ELEMENT_THEORY></metadata><data><meanElements><EPOCH>2025-09-30T10:57:06.818688</EPOCH><MEAN_MOTION>13.52524324</MEAN_MOTION><ECCENTRICITY>.00148923</ECCENTRICITY><INCLINATION>88.9732</INCLINATION><RA_OF_ASC_NODE>110.6637</RA_OF_ASC_NODE><ARG_OF_PERICENTER>189.3455</ARG_OF_PERICENTER><MEAN_ANOMALY>170.7422</MEAN_ANOMALY></meanElements><tleParameters><EPHEMERIS_TYPE>0</EPHEMERIS_TYPE><CLASSIFICATION_TYPE>U</CLASSIFICATION_TYPE><NORAD_CAT_ID>62790</NORAD_CAT_ID><ELEMENT_SET_NO>999</ELEMENT_SET_NO><REV_AT_EPOCH>3733</REV_AT_EPOCH><BSTAR>.77135464E-4</BSTAR><MEAN_MOTION_DOT>.63E-6</MEAN_MOTION_DOT><MEAN_MOTION_DDOT>0</MEAN_MOTION_DDOT></tleParameters></data></segment></body></omm>
<omm id="CCSDS_OMM_VERS" version="2.0">
<header><CREATION_DATE/><ORIGINATOR/></header><body><segment><metadata><OBJECT_NAME>QIANFAN-61</OBJECT_NAME><OBJECT_ID>2025-016G</OBJECT_ID><CENTER_NAME>EARTH</CENTER_NAME><REF_FRAME>TEME</REF_FRAME><TIME_SYSTEM>UTC</TIME_SYSTEM><MEAN_ELEMENT_THEORY>SGP4</MEAN_ELEMENT_THEORY></metadata><data><meanElements><EPOCH>2025-10-08T20:35:46.683744</EPOCH><MEAN_MOTION>13.50973711</MEAN_MOTION><ECCENTRICITY>.0015024</ECCENTRICITY><INCLINATION>88.9793</INCLINATION><RA_OF_ASC_NODE>109.9118</RA_OF_ASC_NODE><ARG_OF_PERICENTER>163.9037</ARG_OF_PERICENTER><MEAN_ANOMALY>196.2594</MEAN_ANOMALY></meanElements><tleParameters><EPHEMERIS_TYPE>0</EPHEMERIS_TYPE><CLASSIFICATION_TYPE>U</CLASSIFICATION_TYPE><NORAD_CAT_ID>62791</NORAD_CAT_ID><ELEMENT_SET_NO>999</ELEMENT_SET_NO><REV_AT_EPOCH>3848</REV_AT_EPOCH><BSTAR>.65938E-4</BSTAR><MEAN_MOTION_DOT>.55E-6</MEAN_MOTION_DOT><MEAN_MOTION_DDOT>0</MEAN_MOTION_DDOT></tleParameters></data></segment></body></omm>
<omm id="CCSDS_OMM_VERS" version="2.0">
<header><CREATION_DATE/><ORIGINATOR/></header><body><segment><metadata><OBJECT_NAME>QIANFAN-62</OBJECT_NAME><OBJECT_ID>2025-016H</OBJECT_ID><CENTER_NAME>EARTH</CENTER_NAME><REF_FRAME>TEME</REF_FRAME><TIME_SYSTEM>UTC</TIME_SYSTEM><MEAN_ELEMENT_THEORY>SGP4</MEAN_ELEMENT_THEORY></metadata><data><meanElements><EPOCH>2025-10-08T20:41:50.680896</EPOCH><MEAN_MOTION>13.50967647</MEAN_MOTION><ECCENTRICITY>.0016379</ECCENTRICITY><INCLINATION>88.9739</INCLINATION><RA_OF_ASC_NODE>109.8149</RA_OF_ASC_NODE><ARG_OF_PERICENTER>164.8246</ARG_OF_PERICENTER><MEAN_ANOMALY>195.3400</MEAN_ANOMALY></meanElements><tleParameters><EPHEMERIS_TYPE>0</EPHEMERIS_TYPE><CLASSIFICATION_TYPE>U</CLASSIFICATION_TYPE><NORAD_CAT_ID>62792</NORAD_CAT_ID><ELEMENT_SET_NO>999</ELEMENT_SET_NO><REV_AT_EPOCH>3847</REV_AT_EPOCH><BSTAR>.52665E-4</BSTAR><MEAN_MOTION_DOT>.46E-6</MEAN_MOTION_DOT><MEAN_MOTION_DDOT>0</MEAN_MOTION_DDOT></tleParameters></data></segment></body></omm>
<omm id="CCSDS_OMM_VERS" version="2.0">
<header><CREATION_DATE/><ORIGINATOR/></header><body><segment><metadata><OBJECT_NAME>QIANFAN-63</OBJECT_NAME><OBJECT_ID>2025-016J</OBJECT_ID><CENTER_NAME>EARTH</CENTER_NAME><REF_FRAME>TEME</REF_FRAME><TIME_SYSTEM>UTC</TIME_SYSTEM><MEAN_ELEMENT_THEORY>SGP4</MEAN_ELEMENT_THEORY></metadata><data><meanElements><EPOCH>2025-10-08T19:30:37.090656</EPOCH><MEAN_MOTION>13.50970596</MEAN_MOTION><ECCENTRICITY>.0016278</ECCENTRICITY><INCLINATION>88.9744</INCLINATION><RA_OF_ASC_NODE>109.7672</RA_OF_ASC_NODE><ARG_OF_PERICENTER>170.2384</ARG_OF_PERICENTER><MEAN_ANOMALY>189.9086</MEAN_ANOMALY></meanElements><tleParameters><EPHEMERIS_TYPE>0</EPHEMERIS_TYPE><CLASSIFICATION_TYPE>U</CLASSIFICATION_TYPE><NORAD_CAT_ID>62793</NORAD_CAT_ID><ELEMENT_SET_NO>999</ELEMENT_SET_NO><REV_AT_EPOCH>3850</REV_AT_EPOCH><BSTAR>.89034E-4</BSTAR><MEAN_MOTION_DOT>.7E-6</MEAN_MOTION_DOT><MEAN_MOTION_DDOT>0</MEAN_MOTION_DDOT></tleParameters></data></segment></body></omm>
<omm id="CCSDS_OMM_VERS" version="2.0">
<header><CREATION_DATE/><ORIGINATOR/></header><body><segment><metadata><OBJECT_NAME>QIANFAN-64</OBJECT_NAME><OBJECT_ID>2025-016K</OBJECT_ID><CENTER_NAME>EARTH</CENTER_NAME><REF_FRAME>TEME</REF_FRAME><TIME_SYSTEM>UTC</TIME_SYSTEM><MEAN_ELEMENT_THEORY>SGP4</MEAN_ELEMENT_THEORY></metadata><data><meanElements><EPOCH>2025-10-08T20:29:52.380672</EPOCH><MEAN_MOTION>13.50972285</MEAN_MOTION><ECCENTRICITY>.0014439</ECCENTRICITY><INCLINATION>88.9732</INCLINATION><RA_OF_ASC_NODE>109.7457</RA_OF_ASC_NODE><ARG_OF_PERICENTER>162.3232</ARG_OF_PERICENTER><MEAN_ANOMALY>197.8425</MEAN_ANOMALY></meanElements><tleParameters><EPHEMERIS_TYPE>0</EPHEMERIS_TYPE><CLASSIFICATION_TYPE>U</CLASSIFICATION_TYPE><NORAD_CAT_ID>62794</NORAD_CAT_ID><ELEMENT_SET_NO>999</ELEMENT_SET_NO><REV_AT_EPOCH>3850</REV_AT_EPOCH><BSTAR>.82218E-4</BSTAR><MEAN_MOTION_DOT>.65E-6</MEAN_MOTION_DOT><MEAN_MOTION_DDOT>0</MEAN_MOTION_DDOT></tleParameters></data></segment></body></omm>

</ndm>
