QIANFAN-57              
1 62787U 25016C   25281.79655278  .00000045  00000+0  51478-4 0  9998
2 62787  88.9749 109.9057 0001688  60.1382 299.9937 13.50974503 38434
QIANFAN-58              
1 62788U 25016D   25281.84176227  .00000053  00000+0  63908-4 0  9997
2 62788  88.9720 109.7526 0014179 163.9233 196.2371 13.50974078 38482
QIANFAN-59              
1 62789U 25016E   25281.79236457  .00000044  00000+0  49990-4 0  9999
2 62789  88.9744 109.8161 0014418 167.9293 192.2206 13.50973328 38470
QIANFAN-60              
1 62790U 25016F   25273.45632892  .00000063  00000+0  77135-4 0  9991
2 62790  88.9732 110.6637 0014892 189.3455 170.7422 13.52524324 37336
QIANFAN-61              
1 62791U 25016G   25281.85817921  .00000055  00000+0  65938-4 0  9992
2 62791  88.9793 109.9118 0015024 163.9037 196.2594 13.50973711 38487
QIANFAN-62              
1 62792U 25016H   25281.86239214  .00000046  00000+0  52665-4 0  9990
2 62792  88.9739 109.8149 0016379 164.8246 195.3400 13.50967647 38473
QIANFAN-63              
1 62793U 25016J   25281.81292929  .00000070  00000+0  89034-4 0  9995
2 62793  88.9744 109.7672 0016278 170.2384 189.9086 13.50970596 38502
QIANFAN-64              
1 62794U 25016K   25281.85407848  .00000065  00000+0  82218-4 0  9999
2 62794  88.9732 109.7457 0014439 162.3232 197.8425 13.50972285 38504
